CCSDS_OMM_VERS = 2.0
CREATION_DATE  = 
ORIGINATOR     = 

OBJECT_NAME    = HTV-X1
OBJECT_ID      = 2025-241A
CENTER_NAME    = EARTH
REF_FRAME      = TEME
TIME_SYSTEM    = UTC
MEAN_ELEMENT_THEORY = SGP/SGP4

EPOCH          = 2026-03-27T04:36:50.347296
MEAN_MOTION    = 15.32420642
ECCENTRICITY   = .0007369
INCLINATION    = 51.6383
RA_OF_ASC_NODE = 348.7349
ARG_OF_PERICENTER = 239.1193
MEAN_ANOMALY   = 120.9064

EPHEMERIS_TYPE = 0
CLASSIFICATION_TYPE = U
NORAD_CAT_ID   = 66174
ELEMENT_SET_NO = 999
REV_AT_EPOCH   = 2362
BSTAR          = .92026E-4
MEAN_MOTION_DOT = .2554E-4
MEAN_MOTION_DDOT = 0

CCSDS_OMM_VERS = 2.0
CREATION_DATE  = 
ORIGINATOR     = 

OBJECT_NAME    = SZ-21 MODULE
OBJECT_ID      = 2025-246C
CENTER_NAME    = EARTH
REF_FRAME      = TEME
TIME_SYSTEM    = UTC
MEAN_ELEMENT_THEORY = SGP/SGP4

EPOCH          = 2026-03-27T01:34:46.588800
MEAN_MOTION    = 15.69868373
ECCENTRICITY   = .0001339
INCLINATION    = 41.4743
RA_OF_ASC_NODE = 96.2882
ARG_OF_PERICENTER = 209.1710
MEAN_ANOMALY   = 150.9058

EPHEMERIS_TYPE = 0
CLASSIFICATION_TYPE = U
NORAD_CAT_ID   = 66515
ELEMENT_SET_NO = 999
REV_AT_EPOCH   = 2080
BSTAR          = .33003E-3
MEAN_MOTION_DOT = .4053E-3
MEAN_MOTION_DDOT = 0

CCSDS_OMM_VERS = 2.0
CREATION_DATE  = 
ORIGINATOR     = 

OBJECT_NAME    = SHENZHOU-22
OBJECT_ID      = 2025-272A
CENTER_NAME    = EARTH
REF_FRAME      = TEME
TIME_SYSTEM    = UTC
MEAN_ELEMENT_THEORY = SGP/SGP4

EPOCH          = 2026-03-26T23:43:11.661024
MEAN_MOTION    = 15.61535723
ECCENTRICITY   = .0004228
INCLINATION    = 41.4668
RA_OF_ASC_NODE = 102.8341
ARG_OF_PERICENTER = 32.9818
MEAN_ANOMALY   = 327.1284

EPHEMERIS_TYPE = 0
CLASSIFICATION_TYPE = U
NORAD_CAT_ID   = 66645
ELEMENT_SET_NO = 999
REV_AT_EPOCH   = 28042
BSTAR          = .26344E-3
MEAN_MOTION_DOT = .22978E-3
MEAN_MOTION_DDOT = 0

CCSDS_OMM_VERS = 2.0
CREATION_DATE  = 
ORIGINATOR     = 

OBJECT_NAME    = SOYUZ-MS 28
OBJECT_ID      = 2025-275A
CENTER_NAME    = EARTH
REF_FRAME      = TEME
TIME_SYSTEM    = UTC
MEAN_ELEMENT_THEORY = SGP/SGP4

EPOCH          = 2026-03-27T03:10:20.924832
MEAN_MOTION    = 15.48575012
ECCENTRICITY   = .0006239
INCLINATION    = 51.6343
RA_OF_ASC_NODE = 346.1324
ARG_OF_PERICENTER = 237.1062
MEAN_ANOMALY   = 122.9326

EPHEMERIS_TYPE = 0
CLASSIFICATION_TYPE = U
NORAD_CAT_ID   = 66664
ELEMENT_SET_NO = 999
REV_AT_EPOCH   = 55909
BSTAR          = .24583E-3
MEAN_MOTION_DOT = .12923E-3
MEAN_MOTION_DDOT = 0

CCSDS_OMM_VERS = 2.0
CREATION_DATE  = 
ORIGINATOR     = 

OBJECT_NAME    = DUPLEX
OBJECT_ID      = 1998-067XS
CENTER_NAME    = EARTH
REF_FRAME      = TEME
TIME_SYSTEM    = UTC
MEAN_ELEMENT_THEORY = SGP/SGP4

EPOCH          = 2026-03-26T23:34:43.056192
MEAN_MOTION    = 15.57326694
ECCENTRICITY   = .0003273
INCLINATION    = 51.6310
RA_OF_ASC_NODE = 342.8841
ARG_OF_PERICENTER = 185.9193
MEAN_ANOMALY   = 174.1760

EPHEMERIS_TYPE = 0
CLASSIFICATION_TYPE = U
NORAD_CAT_ID   = 66906
ELEMENT_SET_NO = 999
REV_AT_EPOCH   = 1782
BSTAR          = .58535E-3
MEAN_MOTION_DOT = .43353E-3
MEAN_MOTION_DDOT = 0

CCSDS_OMM_VERS = 2.0
CREATION_DATE  = 
ORIGINATOR     = 

OBJECT_NAME    = ISS OBJECT XT
OBJECT_ID      = 1998-067XT
CENTER_NAME    = EARTH
REF_FRAME      = TEME
TIME_SYSTEM    = UTC
MEAN_ELEMENT_THEORY = SGP/SGP4

EPOCH          = 2026-03-27T01:29:05.844480
MEAN_MOTION    = 15.75548676
ECCENTRICITY   = .0005739
INCLINATION    = 51.6250
RA_OF_ASC_NODE = 336.6305
ARG_OF_PERICENTER = 192.2616
MEAN_ANOMALY   = 167.8244

EPHEMERIS_TYPE = 0
CLASSIFICATION_TYPE = U
NORAD_CAT_ID   = 66907
ELEMENT_SET_NO = 999
REV_AT_EPOCH   = 1791
BSTAR          = .138E-2
MEAN_MOTION_DOT = .219962E-2
MEAN_MOTION_DDOT = 0

CCSDS_OMM_VERS = 2.0
CREATION_DATE  = 
ORIGINATOR     = 

OBJECT_NAME    = ISS OBJECT XU
OBJECT_ID      = 1998-067XU
CENTER_NAME    = EARTH
REF_FRAME      = TEME
TIME_SYSTEM    = UTC
MEAN_ELEMENT_THEORY = SGP/SGP4

EPOCH          = 2026-03-27T01:24:02.045664
MEAN_MOTION    = 15.75783311
ECCENTRICITY   = .0005927
INCLINATION    = 51.6238
RA_OF_ASC_NODE = 336.6028
ARG_OF_PERICENTER = 191.8620
MEAN_ANOMALY   = 168.2241

EPHEMERIS_TYPE = 0
CLASSIFICATION_TYPE = U
NORAD_CAT_ID   = 66908
ELEMENT_SET_NO = 999
REV_AT_EPOCH   = 1791
BSTAR          = .14272E-2
MEAN_MOTION_DOT = .230149E-2
MEAN_MOTION_DDOT = 0

CCSDS_OMM_VERS = 2.0
CREATION_DATE  = 
ORIGINATOR     = 

OBJECT_NAME    = SILVERSAT
OBJECT_ID      = 1998-067XV
CENTER_NAME    = EARTH
REF_FRAME      = TEME
TIME_SYSTEM    = UTC
MEAN_ELEMENT_THEORY = SGP/SGP4

EPOCH          = 2026-03-27T01:56:47.679360
MEAN_MOTION    = 15.80729588
ECCENTRICITY   = .0006734
INCLINATION    = 51.6220
RA_OF_ASC_NODE = 335.2430
ARG_OF_PERICENTER = 198.1524
MEAN_ANOMALY   = 161.9239

EPHEMERIS_TYPE = 0
CLASSIFICATION_TYPE = U
NORAD_CAT_ID   = 66909
ELEMENT_SET_NO = 999
REV_AT_EPOCH   = 1793
BSTAR          = .15698E-2
MEAN_MOTION_DOT = .319643E-2
MEAN_MOTION_DDOT = 0

CCSDS_OMM_VERS = 2.0
CREATION_DATE  = 
ORIGINATOR     = 

OBJECT_NAME    = ISS OBJECT XW
OBJECT_ID      = 1998-067XW
CENTER_NAME    = EARTH
REF_FRAME      = TEME
TIME_SYSTEM    = UTC
MEAN_ELEMENT_THEORY = SGP/SGP4

EPOCH          = 2026-03-27T01:37:05.835360
MEAN_MOTION    = 15.74199990
ECCENTRICITY   = .0006161
INCLINATION    = 51.6237
RA_OF_ASC_NODE = 336.6606
ARG_OF_PERICENTER = 190.5298
MEAN_ANOMALY   = 169.5573

EPHEMERIS_TYPE = 0
CLASSIFICATION_TYPE = U
NORAD_CAT_ID   = 66910
ELEMENT_SET_NO = 999
REV_AT_EPOCH   = 1791
BSTAR          = .12968E-2
MEAN_MOTION_DOT = .194306E-2
MEAN_MOTION_DDOT = 0

CCSDS_OMM_VERS = 2.0
CREATION_DATE  = 
ORIGINATOR     = 

OBJECT_NAME    = ISS OBJECT XX
OBJECT_ID      = 1998-067XX
CENTER_NAME    = EARTH
REF_FRAME      = TEME
TIME_SYSTEM    = UTC
MEAN_ELEMENT_THEORY = SGP/SGP4

EPOCH          = 2026-03-27T02:13:32.671200
MEAN_MOTION    = 15.86861499
ECCENTRICITY   = .000839
INCLINATION    = 51.6197
RA_OF_ASC_NODE = 333.7874
ARG_OF_PERICENTER = 202.2117
MEAN_ANOMALY   = 157.8525

EPHEMERIS_TYPE = 0
CLASSIFICATION_TYPE = U
NORAD_CAT_ID   = 66911
ELEMENT_SET_NO = 999
REV_AT_EPOCH   = 1794
BSTAR          = .16974E-2
MEAN_MOTION_DOT = .470858E-2
MEAN_MOTION_DDOT = 0

CCSDS_OMM_VERS = 2.0
CREATION_DATE  = 
ORIGINATOR     = 

OBJECT_NAME    = ISS OBJECT XY
OBJECT_ID      = 1998-067XY
CENTER_NAME    = EARTH
REF_FRAME      = TEME
TIME_SYSTEM    = UTC
MEAN_ELEMENT_THEORY = SGP/SGP4

EPOCH          = 2026-03-27T01:45:36.310752
MEAN_MOTION    = 15.67194641
ECCENTRICITY   = .0004189
INCLINATION    = 51.6273
RA_OF_ASC_NODE = 338.9792
ARG_OF_PERICENTER = 189.6514
MEAN_ANOMALY   = 170.4402

EPHEMERIS_TYPE = 0
CLASSIFICATION_TYPE = U
NORAD_CAT_ID   = 66912
ELEMENT_SET_NO = 999
REV_AT_EPOCH   = 1787
BSTAR          = .10222E-2
MEAN_MOTION_DOT = .112875E-2
MEAN_MOTION_DDOT = 0

CCSDS_OMM_VERS = 2.0
CREATION_DATE  = 
ORIGINATOR     = 

OBJECT_NAME    = KNACKSAT-2
OBJECT_ID      = 1998-067XZ
CENTER_NAME    = EARTH
REF_FRAME      = TEME
TIME_SYSTEM    = UTC
MEAN_ELEMENT_THEORY = SGP/SGP4

EPOCH          = 2026-03-26T23:28:34.821984
MEAN_MOTION    = 15.53246131
ECCENTRICITY   = .0009919
INCLINATION    = 51.6326
RA_OF_ASC_NODE = 345.8555
ARG_OF_PERICENTER = 248.4821
MEAN_ANOMALY   = 111.5112

EPHEMERIS_TYPE = 0
CLASSIFICATION_TYPE = U
NORAD_CAT_ID   = 67683
ELEMENT_SET_NO = 999
REV_AT_EPOCH   = 747
BSTAR          = .66435E-3
MEAN_MOTION_DOT = .4242E-3
MEAN_MOTION_DDOT = 0

